NORAD_CAT_ID,OBJECT_NAME,OBJECT_TYPE,EPOCH,MEAN_MOTION,ECCENTRICITY,INCLINATION,RA_OF_ASC_NODE,ARG_OF_PERICENTER,MEAN_ANOMALY,BSTAR,MEAN_MOTION_DOT,MEAN_MOTION_DDOT,TLE_LINE0,TLE_LINE1,TLE_LINE2,SEMIMAJOR_AXIS,PERIOD,APOGEE,PERIGEE,DECAYED
53570.0,STARLINK-4550,PAYLOAD,2023-12-26 04:26:50,15.08833598,0.0001671,53.2186,65.5916,77.502,282.616,8.1535e-06,-1.58e-06,0.0,0 STARLINK-4550,1 53570U 22101AV  23360.18530950 -.00000158  00000-0  81535-5 0  9993,2 53570  53.2186  65.5916 0001671  77.5020 282.6160 15.08833598 74999,6917.9,95.438,540.921,538.609,0.0
53570.0,STARLINK-4550,PAYLOAD,2023-12-26 10:48:23,15.08839307,0.0001582,53.2182,64.4031,79.8036,280.3134,-4.6005e-05,-1.02e-05,0.0,0 STARLINK-4550,1 53570U 22101AV  23360.45026730 -.00001020  00000-0 -46005-4 0  9991,2 53570  53.2182  64.4031 0001582  79.8036 280.3134 15.08839307 75726,6917.883,95.438,540.842,538.653,0.0
53570.0,STARLINK-4550,PAYLOAD,2023-12-27 10:39:10,15.08848106,0.0001637,53.218,59.9434,86.965,273.153,0.00024698,3.646e-05,0.0,0 STARLINK-4550,1 53570U 22101AV  23361.44386611  .00003646  00000-0  24698-3 0  9995,2 53570  53.2180  59.9434 0001637  86.9650 273.1530 15.08848106 75189,6917.856,95.437,540.853,538.588,0.0
53570.0,STARLINK-4550,PAYLOAD,2023-12-28 08:54:34,15.08843683,0.0001692,53.2181,55.7779,104.5961,255.5218,0.0001615,2.283e-05,0.0,0 STARLINK-4550,1 53570U 22101AV  23362.37122712  .00002283  00000-0  16150-3 0  9998,2 53570  53.2181  55.7779 0001692 104.5961 255.5218 15.08843683 75327,6917.869,95.437,540.905,538.564,0.0
53570.0,STARLINK-4550,PAYLOAD,2023-12-28 13:40:43,15.08844614,0.0001699,53.2181,54.8852,106.4065,253.7114,0.00014639,2.043e-05,0.0,0 STARLINK-4550,1 53570U 22101AV  23362.56994585  .00002043  00000-0  14639-3 0  9998,2 53570  53.2181  54.8852 0001699 106.4065 253.7114 15.08844614 76042,6917.866,95.437,540.907,538.556,0.0
53570.0,STARLINK-4550,PAYLOAD,2023-12-29 03:59:12,15.08836004,0.0001673,53.2179,52.2065,95.9975,264.1208,8.5687e-06,-1.52e-06,0.0,0 STARLINK-4550,1 53570U 22101AV  23363.16611116 -.00000152  00000-0  85687-5 0  9994,2 53570  53.2179  52.2065 0001673  95.9975 264.1208 15.08836004 75448,6917.893,95.438,540.915,538.6,0.0
53570.0,STARLINK-4550,PAYLOAD,2023-12-29 10:20:44,15.08843641,0.0001643,53.2176,51.0167,87.7702,272.3478,3.7459e-05,3.08e-06,0.0,0 STARLINK-4550,1 53570U 22101AV  23363.43106755  .00000308  00000-0  37459-4 0  9997,2 53570  53.2176  51.0167 0001643  87.7702 272.3478 15.08843641 76175,6917.869,95.437,540.871,538.598,0.0
53570.0,STARLINK-4550,PAYLOAD,2023-12-30 03:49:59,15.08829381,0.0001997,53.2174,47.7478,116.1649,243.9548,0.00013206,1.814e-05,0.0,0 STARLINK-4550,1 53570U 22101AV  23364.15971407  .00001814  00000-0  13206-3 0  9997,2 53570  53.2174  47.7478 0001997 116.1649 243.9548 15.08829381 75591,6917.913,95.438,541.159,538.396,0.0
53570.0,STARLINK-4550,PAYLOAD,2023-12-30 13:22:17,15.08841095,0.0001764,53.2181,45.9645,109.8544,250.2638,7.746e-05,9.45e-06,0.0,0 STARLINK-4550,1 53570U 22101AV  23364.55715074  .00000945  00000-0  77460-4 0  9994,2 53570  53.2181  45.9645 0001764 109.8544 250.2638 15.08841095 76341,6917.877,95.437,540.962,538.522,0.0
53570.0,STARLINK-4550,PAYLOAD,2023-12-31 11:37:42,15.08839686,0.0001591,53.219,41.7996,90.9784,269.1391,6.694e-05,7.77e-06,0.0,0 STARLINK-4550,1 53570U 22101AV  23365.48451539  .00000777  00000-0  66940-4 0  9994,2 53570  53.2190  41.7996 0001591  90.9784 269.1391 15.08839686 75794,6917.881,95.438,540.847,538.646,0.0
53570.0,STARLINK-4550,PAYLOAD,2024-01-01 01:56:10,15.08831887,0.0001302,53.2194,39.1237,92.8674,267.2467,0.00010473,1.379e-05,0.0,0 STARLINK-4550,1 53570U 22101AV  24001.08068012  .00001379  00000-0  10473-3 0  9996,2 53570  53.2194  39.1237 0001302  92.8674 267.2467 15.08831887 75884,6917.905,95.438,540.671,538.869,0.0
53570.0,STARLINK-4550,PAYLOAD,2024-01-01 09:53:06,15.08840251,0.0001414,53.2191,37.6388,88.1416,271.9738,0.00015147,2.124e-05,0.0,0 STARLINK-4550,1 53570U 22101AV  24001.41187512  .00002124  00000-0  15147-3 0  9992,2 53570  53.2191  37.6388 0001414  88.1416 271.9738 15.08840251 75931,6917.88,95.438,540.723,538.766,0.0
53570.0,STARLINK-4550,PAYLOAD,2024-01-02 09:43:53,15.08844192,0.0001683,53.2192,33.1812,76.6556,283.4624,0.00010587,1.397e-05,0.0,0 STARLINK-4550,1 53570U 22101AV  24002.40547548  .00001397  00000-0  10587-3 0  9995,2 53570  53.2192  33.1812 0001683  76.6556 283.4624 15.08844192 76773,6917.868,95.437,540.897,538.568,0.0
53570.0,STARLINK-4550,PAYLOAD,2024-01-03 07:59:17,15.08838291,0.0001743,53.2194,29.0185,76.2943,283.8243,2.7569e-05,1.51e-06,0.0,0 STARLINK-4550,1 53570U 22101AV  24003.33284120  .00000151  00000-0  27569-4 0  9998,2 53570  53.2194  29.0185 0001743  76.2943 283.8243 15.08838291 76229,6917.886,95.438,540.956,538.545,0.0
53570.0,STARLINK-4550,PAYLOAD,2024-01-04 06:14:40,15.08842162,0.0001605,53.2192,24.8552,85.6804,274.4372,5.9586e-05,6.6e-06,0.0,0 STARLINK-4550,1 53570U 22101AV  24004.26019670  .00000660  00000-0  59586-4 0  9996,2 53570  53.2192  24.8552 0001605  85.6804 274.4372 15.08842162 77058,6917.874,95.437,540.849,538.628,0.0
53570.0,STARLINK-4550,PAYLOAD,2024-01-05 04:30:04,15.08840412,0.0001508,53.2187,20.6909,91.8255,268.291,6.7189e-05,7.82e-06,0.0,0 STARLINK-4550,1 53570U 22101AV  24005.18755701  .00000782  00000-0  67189-4 0  9993,2 53570  53.2187  20.6909 0001508  91.8255 268.2910 15.08840412 76507,6917.879,95.438,540.787,538.701,0.0
53570.0,STARLINK-4550,PAYLOAD,2024-01-05 07:40:51,15.08841451,0.0001617,53.2196,20.0942,94.5669,265.5508,7.49e-05,9.04e-06,0.0,0 STARLINK-4550,1 53570U 22101AV  24005.32003608  .00000904  00000-0  74900-4 0  9996,2 53570  53.2196  20.0942 0001617  94.5669 265.5508 15.08841451 77214,6917.876,95.437,540.86,538.622,0.0
53570.0,STARLINK-4550,PAYLOAD,2024-01-06 07:31:38,15.08844179,0.0001544,53.2185,15.6332,99.8013,260.3153,5.4499e-05,5.8e-06,0.0,0 STARLINK-4550,1 53570U 22101AV  24006.31363432  .00000580  00000-0  54499-4 0  9991,2 53570  53.2185  15.6332 0001544  99.8013 260.3153 15.08844179 76673,6917.868,95.437,540.801,538.664,0.0
53570.0,STARLINK-4550,PAYLOAD,2024-01-07 04:11:39,15.08837647,0.0001464,53.218,11.7678,97.4281,262.6878,-3.4416e-05,-8.36e-06,0.0,0 STARLINK-4550,1 53570U 22101AV  24007.17476217 -.00000836  00000-0 -34416-4 0  9995,2 53570  53.2180  11.7678 0001464  97.4281 262.6878 15.08837647 76806,6917.888,95.438,540.765,538.74,0.0
53570.0,STARLINK-4550,PAYLOAD,2024-01-07 07:22:25,15.08836363,0.0001506,53.218,11.1736,98.4526,261.6637,1.5477e-05,-4.2e-07,0.0,0 STARLINK-4550,1 53570U 22101AV  24007.30724169 -.00000042  00000-0  15477-4 0  9996,2 53570  53.2180  11.1736 0001506  98.4526 261.6637 15.08836363 77510,6917.892,95.438,540.798,538.715,0.0
53570.0,STARLINK-4550,PAYLOAD,2024-01-08 08:48:35,15.08842713,0.0001492,53.2179,6.4164,97.4964,262.6197,5.5782e-05,6e-06,0.0,0 STARLINK-4550,1 53570U 22101AV  24008.36707895  .00000600  00000-0  55782-4 0  9992,2 53570  53.2179   6.4164 0001492  97.4964 262.6197 15.08842713 76987,6917.872,95.437,540.769,538.705,0.0
53570.0,STARLINK-4550,PAYLOAD,2024-01-09 03:53:13,15.08835182,0.000153,53.2191,2.8483,94.0657,266.051,9.7351e-05,1.262e-05,0.0,0 STARLINK-4550,1 53570U 22101AV  24009.16196422  .00001262  00000-0  97351-4 0  9992,2 53570  53.2191   2.8483 0001530  94.0657 266.0510 15.08835182 77104,6917.895,95.438,540.819,538.702,0.0
53570.0,STARLINK-4550,PAYLOAD,2024-01-09 07:03:59,15.08840268,0.0001515,53.2182,2.2564,85.7769,274.3396,0.0001015,1.328e-05,0.0,0 STARLINK-4550,1 53570U 22101AV  24009.29444201  .00001328  00000-0  10150-3 0  9991,2 53570  53.2182   2.2564 0001515  85.7769 274.3396 15.08840268 77815,6917.88,95.438,540.793,538.697,0.0
53570.0,STARLINK-4550,PAYLOAD,2024-01-09 22:57:51,15.08844829,0.0001538,53.2185,359.2828,88.1477,271.9691,6.6456e-05,7.7e-06,0.0,0 STARLINK-4550,1 53570U 22101AV  24009.95684093  .00000770  00000-0  66456-4 0  9990,2 53570  53.2185 359.2828 0001538  88.1477 271.9691 15.08844829 77913,6917.866,95.437,540.795,538.667,0.0
53570.0,STARLINK-4550,PAYLOAD,2024-01-10 03:44:00,15.08846019,0.000154,53.2187,358.3904,89.1253,270.9915,6.2184e-05,7.02e-06,0.0,0 STARLINK-4550,1 53570U 22101AV  24010.15555972  .00000702  00000-0  62184-4 0  9996,2 53570  53.2187 358.3904 0001540  89.1253 270.9915 15.08846019 77254,6917.862,95.437,540.792,538.662,0.0
53570.0,STARLINK-4550,PAYLOAD,2024-01-10 08:30:09,15.08853813,0.0001563,53.2184,357.4966,91.0181,269.099,0.00013484,1.859e-05,0.0,0 STARLINK-4550,1 53570U 22101AV  24010.35427199  .00001859  00000-0  13484-3 0  9999,2 53570  53.2184 357.4966 0001563  91.0181 269.0990 15.08853813 77281,6917.838,95.437,540.784,538.622,0.0
53570.0,STARLINK-4550,PAYLOAD,2024-01-11 03:34:47,15.08843024,0.0001809,53.2191,353.9202,120.0856,240.0316,-4.6928e-06,-3.63e-06,0.0,0 STARLINK-4550,1 53570U 22101AV  24011.14916057 -.00000363  00000-0 -46928-5 0  9995,2 53570  53.2191 353.9202 0001809 120.0856 240.0316 15.08843024 77406,6917.871,95.437,540.988,538.485,0.0
53570.0,STARLINK-4550,PAYLOAD,2024-01-11 08:20:56,15.08846133,0.0001524,53.2193,353.0293,93.9574,266.1592,3.7044e-05,3.02e-06,0.0,0 STARLINK-4550,1 53570U 22101AV  24011.34787906  .00000302  00000-0  37044-4 0  9995,2 53570  53.2193 353.0293 0001524  93.9574 266.1592 15.08846133 78127,6917.862,95.437,540.781,538.672,0.0
53570.0,STARLINK-4550,PAYLOAD,2024-01-12 08:11:43,15.08848229,0.0001625,53.2195,348.5697,115.8725,244.2435,-3.1571e-05,-7.91e-06,0.0,0 STARLINK-4550,1 53570U 22101AV  24012.34147863 -.00000791  00000-0 -31571-4 0  9991,2 53570  53.2195 348.5697 0001625 115.8725 244.2435 15.08848229 77580,6917.855,95.437,540.844,538.596,0.0
53570.0,STARLINK-4550,PAYLOAD,2024-01-12 22:30:12,15.0883947,0.0001583,53.2194,345.8927,110.8216,249.2945,-2.291e-05,-6.53e-06,0.0,0 STARLINK-4550,1 53570U 22101AV  24012.93764704 -.00000653  00000-0 -22910-4 0  9999,2 53570  53.2194 345.8927 0001583 110.8216 249.2945 15.08839470 78364,6917.882,95.438,540.842,538.652,0.0
